<?xml version="1.0" encoding="UTF-8"?>
<kml xmlns="http://www.opengis.net/kml/2.2"><Document>
<name>2026-04-22 to 2026-05-02 Trip Route</name>
<Placemark><name>2026-04-22</name><LineString><tessellate>1</tessellate><coordinates>121.0149689,24.8373207,0 121.0149231,24.8374354,0 121.0149231,24.8374354,0 121.0149231,24.8374354,0 121.0148846,24.8374033,0 121.0148664,24.8373699,0 121.0148926,24.8374069,0 121.0148676,24.8374138,0 121.0147796,24.8373242,0 121.0149766,24.8374432,0 121.0152395,24.8365577,0 121.0150475,24.8374433,0 121.0153494,24.8363966,0 121.0149284,24.8374338,0 121.0146815,24.8368071,0 121.0162342,24.8360533,0 121.0162342,24.8360533,0 121.0158661,24.8351441,0 121.0158661,24.8351441,0 121.014809,24.8355566,0 121.0147848,24.8372978,0 121.014923,24.8373398,0 121.014923,24.8373398,0 121.0123986,24.8371366,0 121.0119294,24.8353473,0 121.0183351,24.8351949,0 121.0292887,24.8329473,0 121.0337793,24.8311356,0 121.0356786,24.8289126,0 121.0323624,24.8248211,0 121.0305274,24.819835,0 121.035326,24.8139657,0 121.0290294,24.8195677,0 121.0223906,24.8358674,0 121.0152911,24.8519853,0 121.0096771,24.8577552,0 121.0756091,24.8832231,0 121.1465173,24.8991551,0 121.2052415,24.9613966,0 121.2696108,25.0172174,0 121.2314493,25.0758012,0 121.2314493,25.0758012,0 121.2317416,25.0769122,0 121.2325277,25.0762339,0 121.2325397,25.0762645,0 121.2325261,25.0762473,0 121.2325452,25.076308,0 121.232535,25.0762781,0 121.2325343,25.0763348,0 121.2325253,25.076229,0 121.232545,25.0762384,0 121.2325289,25.0762351,0 121.2324865,25.0763585,0 121.2324865,25.0762707,0 121.2328116,25.0763578,0 121.2328441,25.0763693,0 121.232217,25.0771851,0 121.2330812,25.0772068,0 121.2329261,25.0773392,0 121.2330488,25.0772159,0 121.2330349,25.0772345,0 121.233023,25.0772119,0 121.2330539,25.0771986,0 121.2330197,25.0771954,0 121.2330197,25.0771954,0 121.2329656,25.0773052,0 121.2330394,25.0772604,0 121.2330542,25.077229,0 121.2330599,25.0772399,0 121.2330283,25.077238,0 121.2319631,25.0781225,0 121.2287948,25.0770922,0 121.2284746,25.0772919,0 121.2284746,25.0772919,0</coordinates></LineString></Placemark>
<Placemark><name>2026-04-23</name><LineString><tessellate>1</tessellate><coordinates>55.3703818,25.2443532,0 55.3703818,25.2443532,0 55.3718856,25.2435155,0 55.3728272,25.243266,0 55.372771,25.2433468,0 55.372431,25.2435137,0 55.3724292,25.2432118,0 55.3724795,25.2431542,0 55.3724434,25.2432904,0 55.3724615,25.243469,0 55.3643027,25.2455408,0 55.3643027,25.2455408,0 55.3611127,25.2486451,0 55.3624288,25.2479032,0 55.3624143,25.2478165,0 55.3625119,25.2479651,0 55.3635075,25.247447,0 55.3634416,25.2475267,0 55.3619865,25.248316,0 55.3625037,25.247889,0 55.362482,25.2479467,0 55.3633253,25.2475395,0 55.363712,25.2475678,0 55.3631188,25.2478146,0 55.3641555,25.2473627,0 55.3653401,25.2464642,0 55.3646485,25.2472504,0 55.3646485,25.2472504,0 -3.5667802,40.4953616,0 -3.5668217,40.497434,0 -3.58997,40.4897131,0 -3.5683407,40.4930439,0 -3.5667802,40.4953616,0 -3.5684846,40.4936354,0 -3.5669066,40.4951052,0 -3.5893371,40.4897327,0 -3.5910194,40.4910593,0 -3.5917326,40.4952753,0 -3.5941318,40.4942258,0 -3.5944,40.4949762,0 -3.5945349,40.4969173,0 -3.5989536,40.5258901,0 -3.6078568,40.5294869,0 -3.6637595,40.513854,0 -3.6820394,40.5199358,0 -3.689725,40.5189609,0 -3.7046439,40.5097847,0 -3.7941568,40.4660496,0 -3.8644157,40.487253,0 -3.9532536,40.594673,0 -4.0020669,40.6335744,0 -4.1026139,40.669312,0 -4.1665611,40.7151954,0 -4.1800967,40.713876,0 -4.1900495,40.720765,0 -4.2117127,40.7770386,0 -4.1509945,40.8413811,0 -4.1263755,40.8518889,0 -4.1093261,40.9154866,0 -4.1539584,40.9409228,0 -4.1491442,40.9440305,0</coordinates></LineString></Placemark>
<Placemark><name>2026-04-24</name><LineString><tessellate>1</tessellate><coordinates>-4.1179935,40.9419278,0 -4.1140379,40.9373013,0 -4.1135505,40.9354199,0 -4.1103935,40.944016,0 -4.1114563,40.9514889,0 -4.1166335,40.9486024,0 -4.1166335,40.9486024,0 -4.1194538,40.9478971,0 -4.1216753,40.948637,0 -4.1181692,40.9477912,0 -4.1160946,40.9487562,0 -4.1166157,40.9481433,0 -4.1154944,40.948734,0 -4.1154944,40.948734,0 -4.1116298,40.9513339,0 -4.1125184,40.9473557,0 -4.1090983,40.9420416,0 -4.1123132,40.9363175,0 -4.1211533,40.9446388,0 -4.1241977,40.9439833,0 -4.1428037,40.9433421,0 -4.1508965,40.9524466,0 -4.1341717,40.9547296,0 -4.1341717,40.9547296,0 -4.1347986,40.9555906,0 -4.1345802,40.9532673,0 -4.1345802,40.9532673,0 -4.1329362,40.9507922,0 -4.1198658,40.9438738,0 -4.1098009,40.9282668,0 -4.1053995,40.9162619,0 -4.2044566,40.8075168,0 -4.1896187,40.7342203,0 -4.1974844,40.73185,0 -4.0301141,40.6338559,0 -4.0042686,40.6179599,0 -3.8896541,40.5343413,0 -3.880846,40.5119531,0 -3.8167191,40.468949,0 -3.7443024,40.4829225,0 -3.6662849,40.5092398,0 -3.6146354,40.4564985,0 -3.5668767,40.4494296,0 -3.5591455,40.449473,0 -3.5586572,40.4490063,0 -3.5585211,40.4490357,0 -3.5586953,40.4490099,0 -3.5586281,40.4490339,0 -3.5586622,40.4490016,0 -3.5588017,40.4488141,0 -3.5584593,40.4482767,0 -3.5578649,40.4473042,0 -3.5578649,40.4473042,0 -3.5564113,40.4490714,0 -3.5336175,40.4461103,0 -3.5354221,40.4445517,0 -3.5644577,40.4399846,0 -3.5883879,40.4459043,0 -3.5921379,40.4491297,0 -3.6146225,40.4497827,0 -3.6194684,40.4497597,0 -3.6602642,40.4283943,0 -3.6665051,40.4023447,0 -3.7046444,40.396448,0 -3.7202281,40.4199832,0 -3.7155033,40.4202698,0 -3.7129388,40.4182919,0 -3.7133494,40.4219489,0 -3.7129388,40.4182919,0 -3.7133494,40.4219489,0 -3.7123949,40.4238387,0 -3.7130728,40.4202582,0 -3.7131308,40.4183694,0 -3.7116352,40.4170406,0 -3.7116352,40.4170406,0 -3.7048006,40.4168435,0 -3.7106078,40.4177272,0 -3.706759,40.4173341,0 -3.7043825,40.4168833,0 -3.7015296,40.4166693,0 -3.7000442,40.4173509,0 -3.7000442,40.4173509,0 -3.6938661,40.4152208,0 -3.6924163,40.4150462,0 -3.6924163,40.4150462,0 -3.6922971,40.4129684,0 -3.6926254,40.4150918,0 -3.6926254,40.4150918,0 -3.6931049,40.4151542,0 -3.6931049,40.4151542,0 -3.6903961,40.4166464,0 -3.6932514,40.418122,0 -3.6995455,40.417864,0 -3.700268,40.4170462,0 -3.700268,40.4170462,0 -3.7006366,40.4167099,0 -3.7006366,40.4167099,0 -3.6999948,40.416609,0 -3.6999948,40.416609,0 -3.6962294,40.4158093,0 -3.6924885,40.4107378,0 -3.702615,40.3969547,0 -3.7064911,40.3950141,0 -3.7093012,40.3909989,0 -3.7192349,40.376251,0 -3.7192111,40.378329,0 -3.730685,40.3212506,0 -3.740175,40.3112345,0 -3.7568429,40.2669121,0 -3.7890739,40.2133626,0 -3.8620733,40.0767253,0 -3.9330252,40.0256668,0 -3.9558308,40.0135659,0 -4.0067504,39.9166321,0 -4.0188527,39.873882,0 -4.0166979,39.8704737,0 -4.0212224,39.8530432,0 -4.0210781,39.8502159,0 -4.0243783,39.8502527,0 -4.0257475,39.8540553,0 -4.024874,39.850356,0 -4.0241601,39.853469,0 -4.021183,39.8544782,0 -4.0248937,39.8503833,0 -4.0235185,39.8529522,0 -4.0262053,39.8536238,0 -4.0249512,39.8503914,0 -4.0259764,39.8531499,0 -4.0349714,39.8525315,0 -4.0243783,39.8502527,0 -4.0270916,39.8567771,0 -4.0339935,39.855112,0 -4.0339378,39.8574334,0 -4.0310473,39.8574583,0 -4.0286814,39.8571279,0 -4.0262632,39.8565453,0</coordinates></LineString></Placemark>
<Placemark><name>2026-04-25</name><LineString><tessellate>1</tessellate><coordinates>-4.0239284,39.8567664,0 -4.0207447,39.85707,0 -4.0214497,39.8592842,0 -4.0241641,39.8592052,0 -4.0265561,39.8591855,0 -4.0222944,39.8592545,0 -4.0212743,39.8611839,0 -4.0189793,39.8612421,0 -4.0261476,39.8590654,0 -4.0189793,39.8612421,0 -4.0167548,39.8535147,0 -4.017387,39.8512905,0 -4.0211779,39.8501695,0 -4.0297835,39.8503569,0 -4.0337669,39.8491753,0 -4.0352946,39.8499917,0 -4.0337669,39.8491753,0 -4.0343675,39.8491742,0 -4.0343675,39.8491742,0 -4.0282035,39.8501288,0 -4.0256366,39.8537322,0 -4.0265824,39.8496572,0 -4.0252844,39.8527125,0 -4.0249301,39.8504191,0 -4.0235185,39.8529522,0 -4.0281524,39.8536641,0 -4.0249374,39.8503871,0 -4.0234419,39.853342,0 -4.0259738,39.8534103,0 -4.0249352,39.8503847,0 -4.0258018,39.8539345,0 -4.0280424,39.8532547,0 -4.0255417,39.8500173,0 -4.0279009,39.8535053,0 -4.0295822,39.8505376,0 -4.0318475,39.8494657,0 -4.0345609,39.849214,0 -4.0350985,39.8494107,0 -4.0354583,39.8499222,0 -4.0354418,39.8498983,0 -4.0350685,39.8500563,0 -4.0350774,39.8500494,0 -4.0350653,39.8500511,0 -4.0350634,39.8500431,0 -4.0350556,39.8500475,0 -4.0354291,39.8499438,0 -4.0354291,39.8499438,0 -4.0349337,39.8529326,0 -4.0611165,39.8352992,0 -4.0470264,39.8203726,0 -3.9798611,39.8159115,0 -3.8658514,39.7524406,0 -3.8238622,39.6786253,0 -3.682992,39.5616922,0 -3.6168728,39.4661035,0 -3.6060972,39.4681766,0 -3.6015093,39.458175,0 -3.6066965,39.4583577,0 -3.6078528,39.4550527,0 -3.6068385,39.4490515,0 -3.6068385,39.4490515,0 -3.6016299,39.4542412,0 -3.600449,39.4503284,0 -3.6073113,39.4496634,0 -3.6049884,39.45252,0 -3.6068266,39.4491444,0 -3.6069685,39.449349,0 -3.6073866,39.4509598,0 -3.6080049,39.4538112,0 -3.6072626,39.456511,0 -3.6109544,39.454214,0 -3.6117993,39.4567304,0 -3.6090526,39.4581863,0 -3.5719532,39.4619308,0 -3.5656587,39.4609252,0 -3.4994318,39.3885424,0 -3.4803541,39.3234755,0 -3.4803541,39.3234755,0 -3.4802893,39.3224996,0 -3.4802893,39.3224996,0 -3.4782073,39.3212509,0 -3.5171944,39.1303879,0 -3.5709884,39.0931933,0 -3.6935457,39.0689047,0 -3.7495851,39.0159089,0 -3.9042841,38.9907834,0 -3.9137516,38.9846386,0 -3.9137516,38.9846386,0 -3.9127851,38.9850354,0 -3.9127851,38.9850354,0 -4.1118833,38.6914118,0 -4.1106047,38.6875331,0 -4.2828607,38.6771155,0 -4.5268348,38.3395214,0 -4.6555293,37.9783712,0 -4.7602601,37.9028072,0 -4.788952,37.8884168,0 -4.788952,37.8884168,0 -4.7900349,37.888375,0 -4.7877362,37.8884988,0 -4.7877362,37.8884988,0 -4.7860132,37.8871369,0 -4.7854839,37.8736121,0 -4.7805219,37.87081,0 -4.7756733,37.8748194,0 -4.7762399,37.8742393,0 -4.7756733,37.8748194,0 -4.7799088,37.878316,0 -4.7799088,37.878316,0 -4.7797057,37.8802012,0 -4.7797076,37.8774978,0 -4.78057,37.8791668,0 -4.7787356,37.881057,0</coordinates></LineString></Placemark>
<Placemark><name>2026-04-26</name><LineString><tessellate>1</tessellate><coordinates>-4.7771863,37.8826063,0 -4.7769088,37.8845595,0 -4.7792409,37.8854074,0 -4.7798315,37.882568,0 -4.7803986,37.880806,0 -4.7794046,37.8780185,0 -4.7761751,37.8757644,0 -4.7769694,37.8747108,0 -4.7769694,37.8747108,0 -4.7809636,37.8712868,0 -4.7861859,37.87597,0 -4.7846733,37.88975,0 -4.7836317,37.8918072,0 -4.7836317,37.8918072,0 -4.7833127,37.8914944,0 -4.7833127,37.8914944,0 -4.7828188,37.8885364,0 -4.7827442,37.8884721,0 -4.7827442,37.8884721,0 -4.7829375,37.8905521,0 -4.7833556,37.8917442,0 -4.7833556,37.8917442,0 -4.7838732,37.8925288,0 -4.7838361,37.8925462,0 -4.7838328,37.8924462,0 -4.7838328,37.8924462,0 -4.7838328,37.8924462,0 -4.7838112,37.8925513,0 -4.7837838,37.8927674,0 -4.7838389,37.8924987,0 -4.7837935,37.8928257,0 -4.7838503,37.8926206,0 -4.7838503,37.8926206,0 -4.7839007,37.8925511,0 -4.783916,37.8925522,0 -4.7837971,37.8925445,0 -4.7837971,37.8925445,0 -4.7839453,37.8925946,0 -4.7838783,37.8925847,0 -4.7839241,37.8925463,0 -4.7839151,37.8924807,0 -4.7839151,37.8924807,0 -4.7832657,37.8919371,0 -4.7832657,37.8919371,0 -4.7867395,37.890392,0 -4.7864018,37.8761641,0 -4.7812909,37.8706146,0 -4.776249,37.868476,0 -4.7738691,37.8654549,0 -4.7643483,37.8511622,0 -4.7442135,37.8398628,0 -4.7400619,37.8349941,0 -4.7351155,37.8162512,0 -4.6836318,37.7715021,0 -4.6481457,37.7381653,0 -4.6389568,37.7343981,0 -4.6353887,37.7298311,0 -4.6926793,37.6497849,0 -4.5338221,37.686372,0 -4.5278972,37.6852994,0 -4.5225551,37.6819039,0 -4.4756306,37.6883977,0 -4.3165451,37.5614813,0 -4.2626759,37.5729786,0 -4.2626759,37.5729786,0 -4.262478,37.5729582,0 -4.262478,37.5729582,0 -4.2444414,37.5672352,0 -4.1326654,37.5899814,0 -3.9988459,37.5403887,0 -3.9633291,37.4899245,0 -3.7814504,37.3820313,0 -3.8329309,37.3426964,0 -3.8255556,37.3120611,0 -3.7825462,37.2647282,0 -3.6821324,37.2112447,0 -3.6396529,37.197568,0 -3.6326642,37.1959536,0 -3.5945652,37.1499683,0 -3.5716254,37.1635426,0 -3.5817437,37.171521,0 -3.5839974,37.1733773,0 -3.5839974,37.1733773,0 -3.5837024,37.1733385,0 -3.5837024,37.1733385,0 -3.5847802,37.1751208,0 -3.5887072,37.1760887,0 -3.5908126,37.1769586,0 -3.5924946,37.1804903,0 -3.5892645,37.1791358,0 -3.5890849,37.1773203,0 -3.591832,37.1808116,0 -3.5896535,37.1786391,0 -3.5883723,37.1770009,0 -3.5856139,37.1753575,0 -3.5915383,37.1805718,0 -3.5868059,37.1763844,0 -3.5855411,37.1781687,0 -3.5845911,37.175448,0 -3.5839233,37.1733605,0 -3.5839834,37.1733241,0 -3.5839834,37.1733241,0 -3.5813941,37.1707096,0 -3.5846528,37.1700101,0 -3.5714333,37.1634835,0 -3.6009808,37.1457304,0 -3.6080261,37.1794603,0 -3.6006612,37.1877651,0 -3.5928178,37.1852309,0 -3.5928178,37.1852309,0 -3.5942177,37.1830655,0 -3.5928148,37.1814071,0</coordinates></LineString></Placemark>
<Placemark><name>2026-04-27</name><LineString><tessellate>1</tessellate><coordinates>-3.594088,37.1844978,0 -3.5934825,37.1823005,0 -3.594088,37.1844978,0 -3.5961476,37.1832086,0 -3.597823,37.1850378,0 -3.6017327,37.1903028,0 -3.6071397,37.1853289,0 -3.6082827,37.1790693,0 -3.6138545,37.1767972,0 -3.6103339,37.16805,0 -3.6079305,37.1686799,0 -3.6079305,37.1686799,0 -3.607255,37.1721381,0 -3.6075479,37.1721053,0 -3.6075479,37.1721053,0 -3.6073333,37.1694323,0 -3.6076428,37.1689917,0 -3.6076428,37.1689917,0 -3.6121788,37.1498071,0 -3.5918254,37.1517249,0 -3.5918254,37.1517249,0 -3.5917481,37.1520668,0 -3.5916135,37.152066,0 -3.5916084,37.1520086,0 -3.5915092,37.1520444,0 -3.5915404,37.1521638,0 -3.5911314,37.1519224,0 -3.5914514,37.1519987,0 -3.5915299,37.1519384,0 -3.5914468,37.1519413,0 -3.5914468,37.1519413,0 -3.5914468,37.1519413,0 -3.5914468,37.1519413,0 -3.5914468,37.1519413,0 -3.5914468,37.1519413,0 -3.5914468,37.1519413,0 -3.5915048,37.1519814,0 -3.5916063,37.1519412,0 -3.5916041,37.1519476,0 -3.5916032,37.1519507,0 -3.5915804,37.1520297,0 -3.59152,37.15192,0 -3.5914482,37.1518843,0 -3.5913913,37.1519104,0 -3.5915124,37.1519509,0 -3.5914737,37.151927,0 -3.5914543,37.1519427,0 -3.591424,37.1519241,0 -3.5915187,37.151899,0 -3.5915187,37.151899,0 -3.5915187,37.151899,0 -3.5914053,37.1517923,0 -3.591451,37.1519661,0 -3.591451,37.1519661,0 -3.591451,37.1519661,0 -3.591451,37.1519661,0 -3.591451,37.1519661,0 -3.5911969,37.1519353,0 -3.5911969,37.1519353,0 -3.6124471,37.1518718,0 -3.6125206,37.1550581,0 -3.6284522,37.1846561,0 -3.6317697,37.1865149,0 -3.6271303,37.203399,0 -3.6582323,37.2383276,0 -3.7181951,37.2118578,0 -3.7323583,37.194033,0 -3.7435006,37.1908076,0 -3.8704617,37.1962342,0 -4.0239394,37.1928622,0 -4.0401421,37.1822428,0 -4.1428997,37.1669902,0 -4.2143536,37.1593199,0 -4.2242512,37.1549083,0 -4.2317834,37.1483303,0 -4.2985774,37.1233417,0 -4.3276339,37.0683734,0 -4.3885308,37.0375943,0 -4.4576093,36.9021232,0 -4.4511202,36.9061079,0 -4.4579308,36.9030988,0 -4.4366993,36.8163134,0 -4.4670695,36.7963629,0 -4.520066,36.7053078,0 -4.528442,36.6114411,0 -4.6232455,36.5687409,0 -4.6339409,36.5936912,0 -4.6369519,36.59692,0 -4.6369519,36.59692,0 -4.6386168,36.5954442,0 -4.6360049,36.59564,0 -4.6360049,36.59564,0 -4.6361201,36.597133,0 -4.6323461,36.5999487,0 -4.6349934,36.5995897,0 -4.6420233,36.5949935,0 -4.6551512,36.5946897,0 -4.7067801,36.6165027,0 -4.7415661,36.6342705,0 -4.7439642,36.6385918,0 -4.6913867,36.7168512,0 -4.7225436,36.7547946,0 -4.7864657,36.8116563,0 -4.8429873,36.8772905,0 -4.8658391,36.9397803,0 -4.9738842,36.9239198,0 -5.018542,36.8905375,0 -5.0506038,36.8687562,0 -5.0532452,36.8646131,0 -5.0595859,36.8622166,0 -5.0619364,36.856249,0 -5.0570781,36.8463239,0 -5.1355515,36.7963027,0 -5.1301721,36.7671125,0 -5.1680266,36.7546528,0 -5.1690341,36.7490536,0 -5.1657149,36.747151,0 -5.1653043,36.7466755,0 -5.1657149,36.747151,0 -5.1638628,36.7435461,0 -5.1668152,36.7419369,0 -5.1668152,36.7419369,0 -5.165248,36.7406046,0 -5.1679855,36.742182,0 -5.1646766,36.7431179,0 -5.1665635,36.7455841,0 -5.1654782,36.7467484,0 -5.1654782,36.7467484,0 -5.1697332,36.7532973,0 -5.1819097,36.7518355,0 -5.186715,36.7571523,0 -5.2411706,36.783323,0 -5.2830357,36.8099839,0 -5.3295297,36.8205494,0 -5.2836278,36.773378,0 -5.3764521,36.8849597,0 -5.394639,36.880744,0 -5.4045692,36.8742988,0 -5.4147472,36.8724131,0 -5.5002316,36.8196164,0 -5.5358838,36.8893971,0 -5.5357022,36.8982064,0 -5.56944,36.9939679,0 -5.5892803,36.9895006,0 -5.6080902,37.0169887,0 -5.6066886,37.0235739,0 -5.6341301,37.0805416,0 -5.6347872,37.1479891,0</coordinates></LineString></Placemark>
<Placemark><name>2026-04-28</name><LineString><tessellate>1</tessellate><coordinates>-5.6676524,37.1751328,0 -5.7308048,37.2378171,0 -5.8151124,37.329675,0 -5.8317908,37.3478031,0 -5.8670008,37.357413,0 -5.8826242,37.3725882,0 -5.9542063,37.3868394,0 -5.9775334,37.3870991,0 -5.9840444,37.3890578,0 -5.982603,37.3993395,0 -5.9890257,37.4031405,0 -5.9946029,37.4037285,0 -5.9995124,37.405408,0 -5.9995124,37.405408,0 -5.9996123,37.4054121,0 -5.9996123,37.4054121,0 -6.008214,37.4052197,0 -6.0140474,37.3803145,0 -6.0333822,37.3699745,0 -6.0333822,37.3699745,0 -6.0332602,37.3698228,0 -6.0330609,37.3700075,0 -6.0330613,37.3700558,0 -6.0329991,37.3700475,0 -6.0332686,37.3700805,0 -6.0332558,37.3700392,0 -6.0332294,37.3699536,0 -6.0330558,37.37003,0 -6.0330377,37.370066,0 -6.0330928,37.3700418,0 -6.033037,37.3700554,0 -6.033037,37.3700554,0 -6.0328876,37.3700184,0 -6.0328797,37.3699945,0 -6.0328693,37.3700118,0 -6.032282,37.3699571,0 -6.0323339,37.3698404,0 -6.0326312,37.3693618,0 -6.0326072,37.3693449,0 -6.0326286,37.3693665,0 -6.0326613,37.3692546,0 -6.0326347,37.3693004,0 -6.032507,37.3695129,0 -6.0326179,37.369354,0 -6.0323768,37.3694288,0 -6.0326231,37.3692977,0 -6.0326231,37.3692977,0 -6.0325284,37.3696081,0 -6.0326146,37.3693251,0 -6.0325335,37.3694458,0 -6.0333467,37.3701907,0 -6.0342689,37.3704003,0 -6.0351584,37.3717842,0 -6.0275045,37.3745179,0 -6.0254556,37.3843675,0 -6.0132198,37.3885608,0 -6.0021711,37.3887662,0 -5.9938552,37.3791894,0 -5.9905124,37.3795754,0 -5.9842383,37.377711,0 -5.9868579,37.3787279,0 -5.9868579,37.3787279,0 -5.9863585,37.3765113,0 -5.9864594,37.3779124,0 -5.9864594,37.3779124,0 -5.9877743,37.3794101,0 -5.985666,37.3863053,0 -5.98408,37.388306,0 -5.9883803,37.3836076,0 -5.9883803,37.3836076,0 -5.9883803,37.3836076,0 -5.9883803,37.3836076,0 -5.9891915,37.3853108,0 -5.9917439,37.3850451,0 -5.9923825,37.3868662,0 -5.9951725,37.384372,0 -5.9923591,37.3861728,0 -5.9932952,37.3862749,0 -5.9932952,37.3862749,0 -5.9942687,37.3881014,0 -5.9940147,37.3850911,0 -5.9940594,37.3869424,0 -5.9941124,37.3859584,0 -5.9947316,37.3885486,0 -5.9959946,37.3883604,0 -5.9959946,37.3883604,0 -5.9978115,37.3844242,0 -5.9978115,37.3844242,0 -5.9954558,37.3817481,0 -5.9976598,37.3798081,0 -6.0036086,37.3938051,0 -5.9964423,37.4023515,0 -6.0004288,37.4053362,0 -6.0004288,37.4053362,0 -6.0005986,37.4053203,0 -6.0005986,37.4053203,0 -6.0028901,37.4061147,0 -6.0075891,37.4065598,0 -6.0051335,37.4216457,0 -5.9759935,37.435232,0 -5.9667776,37.4336361,0 -5.9667776,37.4336361,0 -5.9696681,37.4337422,0 -5.968323,37.4335269,0 -5.968323,37.4335269,0 -5.9694785,37.4319579,0 -5.9662947,37.4336888,0 -5.9643217,37.4274748,0 -5.9614425,37.4250388,0 -5.9482229,37.4237651,0 -5.9449117,37.4176876,0 -5.935986,37.4141528,0 -5.9039626,37.4223352,0 -5.899855,37.4235346,0 -5.8994979,37.4211787,0 -5.8993662,37.421163,0 -5.8993662,37.421163,0 -5.8744709,37.4180521,0 -5.9310442,37.4214132,0 -5.9624283,37.4460145,0</coordinates></LineString></Placemark>
<Placemark><name>2026-04-29</name><LineString><tessellate>1</tessellate><coordinates>-5.9285521,37.6974055,0 2.041354,41.4428206,0 2.3200754,41.452912,0 2.1805013,41.3320017,0 2.0788953,41.293493,0 2.0791819,41.2919391,0 2.0791819,41.2919391,0 2.075564,41.2898191,0 2.0742216,41.2881104,0 2.0717009,41.2893897,0 2.0717009,41.2893897,0 2.0686934,41.2887172,0 2.0727447,41.3191077,0 2.0830647,41.3304828,0 2.135193,41.365413,0 2.1333429,41.3685094,0 2.1290393,41.3673524,0 2.1210328,41.3659665,0 2.1239469,41.3591009,0 2.1262956,41.3594831,0 2.1262956,41.3594831,0 2.1269192,41.359537,0 2.1269192,41.359537,0 2.1423397,41.3699832,0 2.1514125,41.3771455,0 2.1484466,41.3812431,0 2.145622,41.381539,0 2.1422306,41.3787757,0 2.1422306,41.3787757,0 2.1424517,41.379718,0 2.1413333,41.3788293,0 2.1418731,41.3773445,0 2.1435065,41.3757197,0 2.1435065,41.3757197,0 2.1429077,41.3762637,0 2.1426002,41.3766027,0 2.1423853,41.3797533,0 2.1423765,41.3797351,0 2.1423765,41.3797351,0 2.1409938,41.3798222,0 2.1409938,41.3798222,0 2.1462908,41.377923,0 2.1484752,41.3759625,0 2.1150019,41.3496076,0 2.0907535,41.3447726,0 2.0801634,41.3455642,0 2.0191199,41.378696,0 1.99319,41.4359092,0 1.9084638,41.5017973,0 1.9042188,41.5237168,0 1.8533249,41.5905077,0 1.8533249,41.5905077,0 1.8521306,41.5910665,0 1.8510057,41.5908122,0 1.8530894,41.5908055,0 1.8530894,41.5908055,0 1.8485295,41.5925009,0 1.8385115,41.5929273,0 1.8385115,41.5929273,0 1.8358099,41.5924935,0 1.837189,41.5919359,0 1.8377762,41.5910461,0 1.8383864,41.5932416,0 1.8387769,41.5905516,0 1.8391688,41.5883137,0 1.8378661,41.5936294,0 1.841568,41.5879503,0 1.837323,41.5929601,0 1.8422354,41.5886935,0 1.8405166,41.5873339,0 1.8363464,41.5920952,0 1.8363464,41.5920952,0 1.8354843,41.5921073,0 1.8380816,41.5932465,0 1.8407367,41.5943055,0 1.8393616,41.593728,0 1.8393616,41.593728,0 1.83675,41.5927919,0 1.8364089,41.5923311,0 1.8364089,41.5923311,0 1.8396788,41.5935512,0 1.8399905,41.5968675,0 1.836554,41.6000055,0 1.8363835,41.6021252,0 1.8323702,41.6050583,0 1.829672,41.6056876,0 1.8298737,41.6087985,0 1.8404818,41.6127913,0 1.8424686,41.6152398,0 1.8424686,41.6152398,0 1.8428679,41.6149892,0 1.8428679,41.6149892,0 1.8658284,41.6217957,0 1.9164885,41.5929061,0 2.0136986,41.5503834,0 2.1031484,41.5131996,0 2.17281,41.5331395,0 2.1980053,41.5472804,0 2.2311229,41.5495885,0 2.3318694,41.5955469,0 2.3420066,41.6076099,0 2.3410423,41.6072667,0 2.3422429,41.6088922,0 2.3441033,41.6108787,0 2.3449867,41.6125594,0</coordinates></LineString></Placemark>
<Placemark><name>2026-04-30</name><LineString><tessellate>1</tessellate><coordinates>2.3431633,41.610172,0 2.3418734,41.6082183,0 2.3409714,41.607111,0 2.3414316,41.6072298,0 2.3440814,41.6094222,0 2.3415806,41.5940739,0 2.3957047,41.5676621,0 2.416567,41.5387108,0 2.2532323,41.4591911,0 2.2449014,41.454657,0 2.2238705,41.4137,0 2.2222235,41.4120097,0 2.2208183,41.409666,0 2.2152513,41.4039105,0 2.1874909,41.3829759,0 2.1864764,41.3808755,0 2.1876441,41.3791094,0 2.1876441,41.3791094,0 2.1879511,41.378731,0 2.1879511,41.378731,0 2.1871878,41.3808785,0 2.1835095,41.3829913,0 2.1765491,41.3745312,0 2.163844,41.3750712,0 2.1505467,41.3751186,0 2.1437607,41.3794992,0 2.1437607,41.3794992,0 2.1420213,41.378981,0 2.1424332,41.3798407,0 2.1424103,41.3797064,0 2.1425254,41.379907,0 2.1435272,41.3799578,0 2.144829,41.3789817,0 2.1554174,41.3798291,0 2.1693802,41.390684,0 2.178379,41.3972599,0 2.1789632,41.4007716,0 2.1804688,41.4017328,0 2.1804688,41.4017328,0 2.1780273,41.4014777,0 2.1764517,41.40278,0 2.1764517,41.40278,0 2.1744406,41.4041848,0 2.1762874,41.4031073,0 2.1762874,41.4031073,0 2.1790474,41.4029492,0 2.1789188,41.4011294,0 2.180086,41.3999279,0 2.1791165,41.4005181,0 2.180086,41.3999279,0 2.1735098,41.3986077,0 2.1623632,41.3895326,0 2.1659336,41.3867191,0 2.1659336,41.3867191,0 2.1686274,41.3875507,0 2.1686274,41.3875507,0 2.171169,41.3879279,0 2.1695797,41.3879932,0 2.1695797,41.3879932,0 2.1659541,41.3866431,0 2.1664479,41.3864881,0 2.1664479,41.3864881,0 2.169127,41.3856072,0 2.170975,41.3867641,0 2.1690142,41.3889017,0 2.170122,41.3920889,0 2.1671721,41.3954673,0 2.1702486,41.3989523,0 2.163429,41.4049566,0 2.164662,41.4112274,0 2.1623296,41.4141607,0 2.1585032,41.4151222,0 2.1559915,41.4153832,0 2.1559915,41.4153832,0 2.1528451,41.4143154,0 2.1527437,41.41393,0 2.1527437,41.41393,0 2.155937,41.4156491,0 2.1587634,41.4148466,0 2.1587634,41.4148466,0 2.1610103,41.4140983,0</coordinates></LineString></Placemark>
<Placemark><name>2026-05-01</name><LineString><tessellate>1</tessellate><coordinates>2.1685917,41.406882,0 2.1641783,41.4032956,0 2.1661628,41.4016882,0 2.1609411,41.3976709,0 2.1626706,41.3960986,0 2.1566987,41.3911134,0 2.1566987,41.3911134,0 2.1552899,41.3914969,0 2.1552899,41.3914969,0 2.1580091,41.3904384,0 2.1447219,41.3812785,0 2.1402457,41.3781334,0 2.1416082,41.3789213,0 2.1411538,41.3798849,0 2.143507,41.37935,0 2.1486223,41.3764298,0 2.147562,41.3763706,0 2.1500508,41.3765336,0 2.1415907,41.3797753,0 2.1466425,41.3772026,0 2.1453432,41.3787326,0 2.1429862,41.3781389,0 2.1491661,41.376412,0 2.1425369,41.3796767,0 2.1425055,41.3796555,0 2.1425207,41.3796416,0 2.1424702,41.3797255,0 2.1425397,41.3797545,0 2.1425241,41.3796828,0 2.1425574,41.3796679,0 2.1425574,41.3796679,0 2.1450815,41.3783603,0 2.1463777,41.3768398,0 2.143607,41.3789213,0 2.1434562,41.3793543,0 2.1434562,41.3793543,0 2.1412125,41.3805872,0 2.1418877,41.3798979,0 2.1418877,41.3798979,0 2.1489026,41.3827925,0 2.1578794,41.3886328,0 2.1515433,41.3943647,0 2.1611389,41.3968623,0 2.1627801,41.3973132,0 2.1627801,41.3973132,0 2.1647463,41.392725,0 2.1637424,41.395347,0 2.1642757,41.3933412,0 2.1651999,41.3916264,0 2.1631394,41.3939043,0 2.1635905,41.3963584,0 2.1643451,41.3980281,0 2.1624198,41.3944821,0 2.1643451,41.3980281,0 2.1680727,41.3953821,0 2.1540698,41.384071,0 2.1470296,41.378737,0 2.1472021,41.3767674,0 2.1482473,41.3747971,0 2.1008395,41.3390218,0 2.0828345,41.3305268,0 2.0640354,41.3074174,0 2.0576907,41.303982,0 2.0688215,41.2863904,0 2.0722153,41.2879596,0 2.0722153,41.2879596,0 2.0728011,41.2890794,0 2.0728011,41.2890794,0 2.0740172,41.288769,0 2.0729298,41.2896368,0 2.0730182,41.2895911,0 2.0730182,41.2895911,0 2.0731966,41.2895622,0 2.0734171,41.289567,0 2.0731981,41.2895712,0 2.0728011,41.2890794,0 2.0741324,41.2904814,0 2.0740884,41.2905802,0 2.0740714,41.2905709,0 2.0740674,41.2905761,0 2.0740532,41.2905697,0 2.0743743,41.2903508,0 2.0744552,41.290372,0 2.0744889,41.2903448,0 2.0752783,41.2885663,0 2.0752427,41.2884957,0 2.0752367,41.2883997,0 2.0753223,41.2883783,0 2.0785183,41.2905799,0 2.0756156,41.2894039,0 2.0760839,41.2876251,0 2.0731076,41.2868791,0</coordinates></LineString></Placemark>
<Placemark><name>2026-05-02</name><LineString><tessellate>1</tessellate><coordinates>2.0767839,41.2871278,0 2.0767839,41.2871278,0 55.3518885,25.2548122,0 55.3518885,25.2548122,0 55.3540787,25.2528075,0 55.3558854,25.2506031,0 55.3555631,25.2506187,0 55.3555631,25.2506187,0 121.2180989,25.0694053,0 121.2302275,25.0792758,0 121.2284746,25.0776242,0 121.2309931,25.0785764,0 121.2314605,25.0779044,0 121.2333839,25.0773237,0 121.2312494,25.07783,0 121.2333839,25.0773237,0 121.2353184,25.0791689,0 121.2246892,25.0730201,0 121.2163099,25.0518766,0 121.2238741,25.0393377,0 121.2553968,25.0274171,0 121.2603889,25.0274952,0 121.2120546,24.9648001,0 121.150625,24.8995618,0 121.1049202,24.8927969,0 121.0525188,24.8763175,0 121.0296369,24.8760238,0 121.0194487,24.8718542,0 121.0125229,24.864616,0 121.0120206,24.8548292,0 121.0200573,24.8473496,0 121.0222779,24.8385942,0 121.0207532,24.8304038,0 121.0151951,24.8230613,0 121.0179206,24.8235693,0 121.0292183,24.8201272,0 121.0349079,24.814181,0 121.0289963,24.8202275,0 121.0320262,24.8243965,0 121.0362367,24.8300782,0 121.0152117,24.8365178,0 121.0152117,24.8365178,0 121.0143366,24.8369747,0 121.0143366,24.8369747,0 121.0149345,24.8374662,0 121.0149345,24.8374662,0 121.0143503,24.833073,0 121.0143503,24.833073,0 121.0141299,24.8330371,0 121.0141299,24.8330371,0 121.0143362,24.8331487,0 121.0143362,24.8331487,0 121.0179519,24.8351409,0 121.0179519,24.8351409,0 121.0179807,24.8351181,0 121.0179807,24.8351181,0 121.0148661,24.8374225,0 121.0148661,24.8374225,0</coordinates></LineString></Placemark>
</Document></kml>
